X,Y,NAME,WEB_URL,EXIT_TO_ST,LINE,ADDRESS,FEATURECODE,DESCRIPTION,CAPTUREYEAR,MAR_ID,GIS_ID,OBJECTID,SE_ANNO_CAD_DATA,GLOBALID,CREATOR,CREATED,EDITOR,EDITED,ROUTEID,MEASURE,BLOCKKEY,SUBBLOCKKEY,BLOCKFACEKEY,SIDE
-77.059006883585,38.9361455168467,CLEVELAND PARK,http://www.wmata.com/rail/station_detail.cfm?station_id=8,WEST SIDE OF CONNECTICUT AVENUE NW BETWEEN PORTER STREET NW AND ORDWAY STREET NW,red,"3516 CONNECTICUT AVENUE NW, WASHINGTON, DC 20008",1370,Metro Station Entrance,2016/01/08 00:00:00+00,294817,MetroEntPt_1,321,,{94118338-2747-46EB-8A1C-6FA85F7EE4F2},JLAY,2022/12/08 16:29:28+00,JLAY,2022/12/08 16:29:28+00,11025152,4277.7998046875,98a7099a8736cd46d26caaab7581ff94,98a7099a8736cd46d26caaab7581ff94,019208c29dfd6ec30b283b513cb07d79,Left
-77.0585374198334,38.9359846844704,CLEVELAND PARK,http://www.wmata.com/rail/station_detail.cfm?station_id=8,EAST SIDE OF CONNECTICUT AVENUE NW BETWEEN PORTER STREET NW AND ORDWAY STREET NW,red,"3599 CONNECTICUT AVENUE NW, WASHINGTON, DC 20008",1370,Metro Station Entrance,2016/01/08 00:00:00+00,294817,MetroEntPt_2,322,,{AC5C502C-2253-4611-BB32-53CAA9421107},JLAY,2022/12/08 16:29:28+00,JLAY,2022/12/08 16:29:28+00,11025152,4244.7001953125,98a7099a8736cd46d26caaab7581ff94,98a7099a8736cd46d26caaab7581ff94,341b4c60bbb3d3b73cf1433d8d47e2d0,Right
-76.995044654758,38.9338343185985,BROOKLAND-CUA,http://www.wmata.com/rail/station_detail.cfm?station_id=27,NE CORNER OF JOHN MCCORMICK ROAD NE AND MICHIGAN AVENUE NE,red,"801 MICHIGAN AVENUE NE, WASHINGTON, DC 20017",1370,Metro Station Entrance,2016/01/08 00:00:00+00,294853,MetroEntPt_4,324,,{2290B1E1-7583-44DB-8016-BFD0A55D570E},JLAY,2022/12/08 16:29:28+00,JLAY,2023/07/28 19:04:41+00,12060582,1502.30004882812,925d6de2a6a350e2393e3e35ef3f699a,925d6de2a6a350e2393e3e35ef3f699a,6fcf10315e55514c1788adb1ec7b62c0,Left
-76.9943460400974,38.9335113211738,BROOKLAND-CUA,http://www.wmata.com/rail/station_detail.cfm?station_id=27,9TH STREET NE BETWEEN BUNKER HILL RD NE AND MONROE ST NE,red,"801 MICHIGAN AVENUE NE, WASHINGTON, DC 20017",1370,Metro Station Entrance,2016/01/08 00:00:00+00,294853,MetroEntPt_6,326,,{0255F371-01C4-4DC1-9EB4-9B2A90B307B7},JLAY,2022/12/08 16:29:28+00,JLAY,2023/07/28 19:04:41+00,12000902,3039.30004882812,c58a4c2603988ffb2b031d42e3bef12d,c58a4c2603988ffb2b031d42e3bef12d,da7e4ec5f9cb609e1973998b58b0e57f,Left
-77.0330320346664,38.9286189168807,COLUMBIA HEIGHTS,http://www.wmata.com/rail/station_detail.cfm?station_id=75,SW CORNER OF IRVING STREET NW AND 14TH STREET NW,"green,yellow","3030 14TH STREET NW, WASHINGTON, DC 20009",1370,Metro Station Entrance,2016/01/08 00:00:00+00,294815,MetroEntPt_8,327,,{230B3DD1-EC8D-4727-9FC5-127585A2A863},JLAY,2022/12/08 16:29:28+00,JLAY,2022/12/08 16:29:28+00,11048752,2350.10009765625,d8cf21b9401e8ff38836d5aa90145f13,d8cf21b9401e8ff38836d5aa90145f13,bd020257fb22f2f407dba5c307f2b0c1,Left
-77.0523652869605,38.924468116994,WOODLEY PARK-ZOO/ADAMS MORGAN,http://www.wmata.com/rail/station_detail.cfm?station_id=7,SW CORNER OF CONNECTICUT AVENUE NW AND 24TH STREET NW,red,"2700 CONNECTICUT AVENUE NW, WASHINGTON, DC 20008",1370,Metro Station Entrance,2016/01/08 00:00:00+00,294827,MetroEntPt_11,330,,{3928F88C-B114-4935-9674-977AFEA1444F},JLAY,2022/12/08 16:29:28+00,JLAY,2023/07/28 19:04:41+00,11002402,1633.69995117188,6ce1da77bdb78f735cbd9a8c9769cc74,9bc9a2a3943557fd883840a27edb0e8e,4fd4f415e53245ade8aa738f8e1f6ffe,Right
-76.9960746770427,38.9204784940951,RHODE ISLAND AVE-BRENTWOOD,http://www.wmata.com/rail/station_detail.cfm?station_id=26,SOUTH SIDE OF RHODE ISLAND AVENUE NE AT RHODE ISLAND PLACE SHOPPING CENTER,red,"919 RHODE ISLAND AVENUE NE, WASHINGTON, DC 20018",1370,Metro Station Entrance,2016/01/08 00:00:00+00,294859,MetroEntPt_12,331,,{4C3864AA-DB77-432A-BB60-3408E263EFB2},JLAY,2022/12/08 16:29:28+00,JLAY,2023/07/28 19:04:41+00,0,0,0,0,0,0
-77.0291983562739,38.9168307448209,U ST/AFRICAN AMER CIVIL WAR MEM/CARDOZO,http://www.wmata.com/rail/station_detail.cfm?station_id=73,SE CORNER  OF U STREET NW AND 13TH STREET NW,"green,yellow","1240 U STREET NW, WASHINGTON, DC 20009",1370,Metro Station Entrance,2016/01/08 00:00:00+00,294840,MetroEntPt_13,332,,{8D3C471B-98EF-4F3E-BF78-8F0F50291F48},JLAY,2022/12/08 16:29:28+00,JLAY,2023/07/28 19:04:41+00,11087232,1357.69995117188,f70c70fc8b95392ca28cad5ff2ef10fa,840abcfe35060c6ca616954590f8f03c,aba1a5ff6531eb33bb67d46553a0090d,Left
-77.0259752638627,38.9167212888408,U ST/AFRICAN AMER CIVIL WAR MEM/CARDOZO,http://www.wmata.com/rail/station_detail.cfm?station_id=73,SW CORNER OF U STREET NW AND VERMONT AVENUE NW,"green,yellow","1000 U STREET NW, WASHINGTON, DC 20009",1370,Metro Station Entrance,2016/01/08 00:00:00+00,294840,MetroEntPt_15,334,,{3FD661CA-539F-4FC7-A250-C405A5D9BC16},JLAY,2022/12/08 16:29:28+00,JLAY,2023/07/28 19:04:41+00,11087232,1078.5,0076d81baa4ba918d197f570e5ea9607,0076d81baa4ba918d197f570e5ea9607,d15face24d48e8a7c38548d725189c7c,Left
-77.0208706495927,38.8844902579767,L'ENFANT PLAZA,http://www.wmata.com/rail/station_detail.cfm?station_id=82,SOUTH SIDE OF D STREET SW BETWEEN 6TH STREET SW AND 7TH STREET SW,"green, yellow, orange, blue, silver","400 7TH STREET SW, WASHINGTON, DC 20024",1370,Metro Station Entrance,2016/01/08 00:00:00+00,294875,MetroEntPt_16,335,,{3B26DF25-8EA4-4571-BDA6-49621984F9A4},JLAY,2022/12/08 16:29:28+00,JLAY,2022/12/08 16:29:28+00,14026912,632.799987792969,2fa45f37ea63fcac726c9793e07aa275,2fa45f37ea63fcac726c9793e07aa275,043e4053d069f958aa7854e168b2e9dc,Left
-77.0235478373163,38.8844570033799,L'ENFANT PLAZA,http://www.wmata.com/rail/station_detail.cfm?station_id=82,SE CORNER OF 9TH STREET SW AND D STREET SW,"green, yellow, orange, blue, silver","800 D STREET SW, WASHINGTON, DC 20024",1370,Metro Station Entrance,2016/01/08 00:00:00+00,294875,MetroEntPt_17,336,,{2560569A-35ED-416C-A515-D370E9F81D20},JLAY,2022/12/08 16:29:28+00,JLAY,2022/12/08 16:29:28+00,14000902,573.900024414062,f6f63672d09316553dbf9e827135a55c,583208b2f057ffa08fe1ce5e37b88d54,f444222c40493de16dea32349696f90b,Left
-76.9958152902247,38.8842528665057,EASTERN MARKET,http://www.wmata.com/rail/station_detail.cfm?station_id=60,SOUTH SIDE OF PENNSYLVANIA AVENUE SE BETWEEN 7TH STREET SE AND 8TH STREET SE,"blue, orange, silver","725 PENNSYLVANIA AVENUE SE, WASHINGTON, DC 20003",1370,Metro Station Entrance,2016/01/08 00:00:00+00,294870,MetroEntPt_19,337,,{2ED2510A-C03B-485D-AD3D-7506C53381EA},JLAY,2022/12/08 16:29:28+00,JLAY,2022/12/08 16:29:28+00,13069812,766.5,83de5c4dd6dc04d938f726db03bb273a,83de5c4dd6dc04d938f726db03bb273a,2ae1a76437bbd6e5d22f7de3a0cdee26,Right
-76.9852049551722,38.8807756675911,POTOMAC AVE,http://www.wmata.com/rail/station_detail.cfm?station_id=61,NE CORNER OF 14TH STREET SE AND POTOMAC AVENUE SE,"blue, orange, silver","700 14TH STREET SE, WASHINGTON , DC  20003",1370,Metro Station Entrance,2016/01/08 00:00:00+00,294861,MetroEntPt_21,339,,{03B37579-72C2-4D91-9301-38E29489F282},JLAY,2022/12/08 16:29:28+00,JLAY,2022/12/08 16:29:28+00,13071892A,26.7000007629395,88613fcbf96272cdf479ebb9cacc1ace,88613fcbf96272cdf479ebb9cacc1ace,29f8bbb0f9ce46eb014ca803bc207e1d,Right
-77.0175388265063,38.876989770911,WATERFRONT,http://www.wmata.com/rail/station_detail.cfm?station_id=83,NE CORNER OF M STREET SW AND 4TH STREET SW,green,"399 M STREET SW, WASHINGTON, DC 20024",1370,Metro Station Entrance,2016/01/08 00:00:00+00,294877,MetroEntPt_22,340,,{F93CC163-20A1-4388-99C7-58767F05035C},JLAY,2022/12/08 16:29:28+00,JLAY,2022/12/08 16:29:28+00,14000402,1412.19995117188,6495bb944a136d5876ec54612ba72acb,6495bb944a136d5876ec54612ba72acb,8919c1ef92ea6d566c86056288a10a04,Left
-77.0044974771432,38.8766767526087,NAVY YARD-BALLPARK,http://www.wmata.com/rail/station_detail.cfm?station_id=84,NW CORNER OF NEW JERSEY AVENUE SE AND M STREET SE,green,"1155 NEW JERSEY AVENUE SE, WASHINGTON, DC 20003",1370,Metro Station Entrance,2016/01/08 00:00:00+00,294869,MetroEntPt_23,341,,{92FE61E7-14A0-4FB7-8930-C03FE7E6E5DC},JLAY,2022/12/08 16:29:28+00,JLAY,2022/12/08 16:29:28+00,13057852,399.399993896484,ebe4b6e68fefe3a7173ef0d211cc0b23,f8f07b22c182ed84c4eaa071ead243e3,3c01c2457cd6e03747cb275ce3c0bf8a,Left
-77.0071332812489,38.8762783150149,NAVY YARD-BALLPARK,http://www.wmata.com/rail/station_detail.cfm?station_id=84,NW CORNER OF HALF STREET SE AND M STREET SE,green,"200 M STREET SE, WASHINGTON, DC 20003",1370,Metro Station Entrance,2016/01/08 00:00:00+00,294869,MetroEntPt_26,344,,{4D9E2276-523A-404B-945B-4CAEFB83B117},JLAY,2022/12/08 16:29:28+00,JLAY,2022/12/08 16:29:28+00,13057852,170.699996948242,d2c3e44df55ddb7204e4871a445a236f,d2c3e44df55ddb7204e4871a445a236f,61efb48a86fdf7903e11dceddb051f66,Right
-76.9960228993341,38.8644359866007,ANACOSTIA,http://www.wmata.com/rail/station_detail.cfm?station_id=85,NE CORNER OF HOWARD ROAD SE AND I - 295 SE,green,"1700 ANACOSTIA DRIVE SE, WASHINGTON, DC 20020",1370,Metro Station Entrance,2016/01/08 00:00:00+00,294867,MetroEntPt_27,345,,{A971A877-939B-471F-BF2B-34EA396DC5FC},JLAY,2022/12/08 16:29:28+00,JLAY,2022/12/08 16:29:28+00,0,0,0,0,0,0
-76.9950700711241,38.8622983608879,ANACOSTIA,http://www.wmata.com/rail/station_detail.cfm?station_id=85,INTERSECTION OF HOWARD ROAD SE AND SHANNON PLACE SE,green,"1101 HOWARD ROAD SE, WASHINGTON, DC 20020",1370,Metro Station Entrance,2016/01/08 00:00:00+00,294867,MetroEntPt_28,346,,{6B350122-0392-40B0-ACAD-175BA633F9EB},JLAY,2022/12/08 16:29:28+00,JLAY,2022/12/08 16:29:28+00,13046732,643.400024414062,616977ec82d8c00277a551ed2ab8f0e6,f8063c65b2e5c36a2fcdab7af3006b53,90f165baf594255ed2da8eb589fac6df,Right
-76.9954664512619,38.8621694574559,ANACOSTIA,http://www.wmata.com/rail/station_detail.cfm?station_id=85,INTERSECTION OF HOWARD ROAD SE AND SHANNON PLACE SE,green,"1101 HOWARD ROAD SE, WASHINGTON, DC 20020",1370,Metro Station Entrance,2016/01/08 00:00:00+00,294867,MetroEntPt_29,347,,{D4A1E89A-3EBA-4F06-A3BC-4AAD2D654E12},JLAY,2022/12/08 16:29:28+00,JLAY,2022/12/08 16:29:28+00,13046732,625.900024414062,616977ec82d8c00277a551ed2ab8f0e6,f8063c65b2e5c36a2fcdab7af3006b53,90f165baf594255ed2da8eb589fac6df,Right
-76.9877775938779,38.8453976738615,CONGRESS HEIGHTS,http://www.wmata.com/rail/station_detail.cfm?station_id=86,NORTH SIDE OF ALABAMA AVENUE SE AT 13TH STREET SE,green,"1290 ALABAMA AVENUE SE, WASHINGTON, DC 20020",1370,Metro Station Entrance,2016/01/08 00:00:00+00,294865,MetroEntPt_30,348,,{17469A9F-17E3-470B-928B-6BAAABBD3DC1},JLAY,2022/12/08 16:29:28+00,JLAY,2022/12/08 16:29:28+00,0,0,0,0,0,0
-76.9876204255938,38.8446546677904,CONGRESS HEIGHTS,http://www.wmata.com/rail/station_detail.cfm?station_id=86,SOUTH SIDE OF ALABAMA AVENUE SE AT 13TH STREET SE,green,"1290 ALABAMA AVENUE SE, WASHINGTON, DC 20020",1370,Metro Station Entrance,2016/01/08 00:00:00+00,294865,MetroEntPt_32,350,,{F1232BBC-F97A-4F08-82A0-46011DB9B011},JLAY,2022/12/08 16:29:28+00,JLAY,2022/12/08 16:29:28+00,13009362,1045.09997558594,afcb366fc5da216d0d8be130517a2885,60568eb9db5be5ffb3349de70c96fd19,d0df0f2c5464dd72c9237ebb9d9ba6f5,Right
-77.0038285218695,38.9057176402269,NOMA-GALLAUDET U-NEW YORK AVE,http://www.wmata.com/rail/station_detail.cfm?station_id=108,NORTH SIDE OF M STREET NE AT INTERSECTION WITH DELAWARE AVENUE NE,red,"201 M STREET NE, WASHINGTON, DC  20002",1370,Metro Station Entrance,2016/01/08 00:00:00+00,294857,MetroEntPt_44,351,,{56B20DAF-8963-4DC8-A516-018AA1EAB126},JLAY,2022/12/08 16:29:28+00,JLAY,2023/07/28 19:04:41+00,12057852,454.200012207031,b41c9f9f3a4fd0471e24e4e6f2406493,b41c9f9f3a4fd0471e24e4e6f2406493,748d7bfa08446360b32561d7f8bca32b,Left
-77.0282337548987,38.8989922371168,METRO CENTER,http://www.wmata.com/rail/station_detail.cfm?station_id=1,12TH STREET BETWEEN G ST NW AND H ST NW,"red, blue, orange, silver","701 12TH STREET NW, WASHINGTON, DC 20005",1370,Metro Station Entrance,2016/01/08 00:00:00+00,294812,MetroEntPt_61,352,,{86D9EB89-DA2A-4451-833E-DECFE1D15209},JLAY,2022/12/08 16:29:28+00,JLAY,2022/12/08 16:29:28+00,11001202,946.799987792969,1a81a26188269109a590cbfe306f0ca6,79ab87df4d60a402eea66caa07b13004,9c4764d15d23d314b8cc44fe981f3641,Left
-77.0225332781259,38.8939471241927,ARCHIVES-NAVY MEMORIAL-PENN QUARTER,http://www.wmata.com/rail/station_detail.cfm?station_id=81,NW CORNER OF 7TH STREET NW AND PENNSYLVANIA AVENUE NW,"green,yellow","701 PENNSYLVANIA AVENUE NW, WASHINGTON, DC 20004",1370,Metro Station Entrance,2016/01/08 00:00:00+00,294835,MetroEntPt_80,353,,{A1DE7ECF-C0B4-43B2-A1A1-F168822084A1},JLAY,2022/12/08 16:29:28+00,JLAY,2023/07/28 19:04:41+00,11069812,935.200012207031,80178b1f0127bb84ff5f84a33ddbe0c0,80178b1f0127bb84ff5f84a33ddbe0c0,6af1dd78e04390b9b9b3517066bde5e7,Right
-77.0324296885804,38.928876254913,COLUMBIA HEIGHTS,http://www.wmata.com/rail/station_detail.cfm?station_id=75,NE CORNER OF IRVING STREET NW AND 14TH STREET NW,"green,yellow","3101 14TH STREET NW, WASHINGTON, DC 20009",1370,Metro Station Entrance,2016/01/08 00:00:00+00,294815,MetroEntPt_7,355,,{49C9583D-26B3-4C84-8E91-C15F7508BB57},JLAY,2022/12/08 16:29:28+00,JLAY,2022/12/08 16:29:28+00,11048752,2303.69995117188,c9efe85c303f4b92ed81823649b7f741,cc9c51641a97f9c0f860f4e420443acd,8d6970f590f3d8d3a08220a07d2fc138,Right
-77.0034304738435,38.9072869701844,NOMA-GALLAUDET U-NEW YORK AVE,http://www.wmata.com/rail/station_detail.cfm?station_id=108,EAST SIDE OF 2ND STREET NE AT INTERSECTION WITH N STREET NE ,red,"200 FLORIDA AVENUE NE, WASHINGTON, DC  20002",1370,Metro Station Entrance,2016/01/08 00:00:00+00,294857,MetroEntPt_42,357,,{F01B923C-04D8-4747-A3C6-9720F72577A1},JLAY,2022/12/08 16:29:28+00,JLAY,2023/07/28 19:04:41+00,12000202,1595.40002441406,3de311c16b26856a5247a8b175dfb89a,3de311c16b26856a5247a8b175dfb89a,9fa0bdf8fe0e1161cc4f745da61b8627,Right
-77.0504647402315,38.9009028901176,FOGGY BOTTOM-GWU,http://www.wmata.com/rail/station_detail.cfm?station_id=40,NW CORNER OF 23RD STREET NW AND I STREET NW,"blue, orange, silver","2301 I STREET NW, WASHINGTON, DC 20037",1370,Metro Station Entrance,2016/01/08 00:00:00+00,294821,MetroEntPt_57,358,,{69FD849C-8C14-4CDD-8926-FF3336286B78},JLAY,2022/12/08 16:29:28+00,JLAY,2023/07/28 19:04:41+00,11002302,1185.80004882812,7c355ab5e7c3981fb4b3951952859e1d,7c355ab5e7c3981fb4b3951952859e1d,ddafe21d54e87869721cf2b1def990b1,Left
-77.0159870259094,38.8953218177771,JUDICIARY SQUARE,http://www.wmata.com/rail/station_detail.cfm?station_id=23,NE CORNER OF 4TH STREET NW AND INDIANA AVENUE NW,red,"435 4TH STREET NW, WASHINGTON, DC 20001",1370,Metro Station Entrance,2016/01/08 00:00:00+00,294829,MetroEntPt_79,359,,{E8DF1FD7-079F-4AB4-A694-F0A3210CE406},JLAY,2022/12/08 16:29:28+00,JLAY,2022/12/08 16:29:28+00,11000402,330.100006103516,3bd0945ea670b5b0ef1814efb850f0ff,3bd0945ea670b5b0ef1814efb850f0ff,ed6637bda67121071891a5ea1571d585,Right
-76.9770651812913,38.8882907784013,STADIUM-ARMORY,http://www.wmata.com/rail/station_detail.cfm?station_id=63,NE CORNER OF 19TH STREET SE AND INDEPENDENCE AVENUE SE,"blue, orange, silver","102 19TH STREET SE, WASHINGTON, DC 20003",1370,Metro Station Entrance,2016/01/08 00:00:00+00,294863,MetroEntPt_87,360,,{3F7B665B-2629-4694-9E9D-87072D3EC067},JLAY,2022/12/08 16:29:28+00,JLAY,2023/07/28 19:04:41+00,13001902,168.199996948242,47d7cae9f240faca962246573c5a2cb7,b7ce5417c99f10eb9d234c2962597a4c,3421ae8c4ee7b9e5c4936ea0002cbe64,Left
-77.0793633884161,38.948085121249,TENLEYTOWN-AU,http://www.wmata.com/rail/station_detail.cfm?station_id=10,NE CORNER OF ABLEMARLE STREET NW AND WISCONSIN AVENUE NW,red,"4501 WISCONSIN AVENUE NW, WASHINGTON, DC 20016",1370,Metro Station Entrance,2016/01/08 00:00:00+00,294846,MetroEntPt_107,361,,{D491CB2C-612A-4B1C-9631-ABFDBFB7B353},JLAY,2022/12/08 16:29:28+00,JLAY,2023/07/28 19:04:41+00,11009492,2320.69995117188,c8c7e35eba0a28e1420c84ae263860b4,c8c7e35eba0a28e1420c84ae263860b4,185dc1b1474137719b587722fe3332ba,Right
-77.0216841504481,38.9145059244193,SHAW-HOWARD U,http://www.wmata.com/rail/station_detail.cfm?station_id=72,7TH ST NW BETWEEN S ST NW AND T ST NW,"green,yellow","1801 7TH ST NW, WASHINGTON, DC 20001",1370,Metro Station Entrance,2016/01/08 00:00:00+00,294838,MetroEntPt_33,362,,{F6A872BD-F672-45E5-9BF5-B999B4A5DCD7},JLAY,2022/12/08 16:29:28+00,JLAY,2023/07/28 19:04:41+00,11000702,2760.69995117188,66fc3a852e3afda4a5003fd875e40c85,66fc3a852e3afda4a5003fd875e40c85,3fd8c7e0885ce62a8e342e90e3085af8,Right
-77.0225980795687,38.9127813300668,SHAW-HOWARD U,http://www.wmata.com/rail/station_detail.cfm?station_id=72,R ST NW BETWEEN 7TH ST NW AND 8TH ST NW,"green,yellow","1701 8TH STREET NW, WASHINGTON, DC 20001",1370,Metro Station Entrance,2016/01/08 00:00:00+00,294838,MetroEntPt_35,364,,{D78B2969-7DA0-4B33-97D1-B84FCABB85CD},JLAY,2022/12/08 16:29:28+00,JLAY,2023/07/28 19:04:41+00,11074162,1175.40002441406,08afd6b2f93d7e6899249c2bf54d3e8b,b20cc1df510492d7b09e2158e084bb59,4820ab19132239cd1e23ef3c34462338,Right
-77.0447257294422,38.9110058066356,DUPONT CIRCLE,http://www.wmata.com/rail/station_detail.cfm?station_id=6,SE CORNER OF 20TH STREET NW AND Q STREET NW,red,"1525 20TH ST NW, WASHINGTON, DC 20036",1370,Metro Station Entrance,2016/01/08 00:00:00+00,294836,MetroEntPt_36,365,,{D63D1716-68EB-454A-8022-8400CC231A9E},JLAY,2022/12/08 16:29:28+00,JLAY,2022/12/08 16:29:28+00,11002002,1992.69995117188,f722985dc46de48ceb9eaf81f5615da4,f722985dc46de48ceb9eaf81f5615da4,e22a787f2d588c62fd2c975d27a45835,Right
-77.0433192872454,38.9086828861307,DUPONT CIRCLE,http://www.wmata.com/rail/station_detail.cfm?station_id=6,SE CORNER OF 19TH STREET NW AND DUPONT CIRCLE NW,red,"1351 19TH ST NW, WASHINGTON, DC 20036",1370,Metro Station Entrance,2016/01/08 00:00:00+00,294836,MetroEntPt_38,367,,{7E87E601-5103-4D79-BAB6-FA219546095F},JLAY,2022/12/08 16:29:28+00,JLAY,2022/12/08 16:29:28+00,11001902,1840.09997558594,97c6a8bec0984a15da19e0ff12fece26,a03ed029cd4ce68f81f352ab1707c810,2f1353bcc2ba3d1bae60a16ac9c60e9e,Right
-76.9351724714565,38.9085608340243,DEANWOOD,http://www.wmata.com/rail/station_detail.cfm?station_id=65,NORTH SIDE OF MINNESOTA AVENUE NE AT 48TH STREET NE,orange,"4701 POLK STREET NE, WASHINGTON, DC 20019",1370,Metro Station Entrance,2016/01/08 00:00:00+00,294858,MetroEntPt_39,368,,{4D59092A-DA3D-4E19-8260-A5B4DC269359},JLAY,2022/12/08 16:29:28+00,JLAY,2022/12/08 16:29:28+00,12070982,328.600006103516,43eaae1863bdb53f2ad3f6da6b704f83,43eaae1863bdb53f2ad3f6da6b704f83,86d10f16bedb0b48b917cf297422fa70,Right
-76.9347226134998,38.908267505939,DEANWOOD,http://www.wmata.com/rail/station_detail.cfm?station_id=65,SOUTH SIDE OF POLK STREET NE AT OLIVE STREET NE,orange,"4720 MINNESOTA AVENUE NE, WASHINGTON, DC 20019",1370,Metro Station Entrance,2016/01/08 00:00:00+00,294858,MetroEntPt_40,369,,{A71DCF93-A8CB-441C-9690-664925FBD4BB},JLAY,2022/12/08 16:29:28+00,JLAY,2022/12/08 16:29:28+00,0,0,0,0,0,0
-77.0221499575653,38.9054360738238,MT VERNON SQ-7TH ST-CONVENTION CENTER,http://www.wmata.com/rail/station_detail.cfm?station_id=70,SW CORNER OF 7TH STREET NW AND M STREET NW,"green, yellow","700 M STREET NW, WASHINGTON, DC 20001",1370,Metro Station Entrance,2016/01/08 00:00:00+00,294834,MetroEntPt_46,373,,{C2F8AE91-74E8-4F76-BB06-22D69EC38564},JLAY,2022/12/08 16:29:28+00,JLAY,2023/07/28 19:04:41+00,11000702,1753.80004882812,6b399169348bc03b6abba32adf32b9b0,6b399169348bc03b6abba32adf32b9b0,a89291dad0448ba978b3382366cbbbc5,Left
-77.03983384067,38.9039304557329,FARRAGUT NORTH,http://www.wmata.com/rail/station_detail.cfm?station_id=4,NE CORNER OF L STREET NW AND CONNECTICUT AVENUE NW,red,"1717 L STREET NW, WASHINGTON, DC 20036",1370,Metro Station Entrance,2016/01/08 00:00:00+00,294828,MetroEntPt_47,374,,{F0EC2D6B-51F3-4C49-93A3-C5E3DC32AFFD},JLAY,2022/12/08 16:29:28+00,JLAY,2022/12/08 16:29:28+00,11053492,2369.19995117188,e72e42be19b49f6dff8eda2267bfcb08,44001d60f531079b045f6013fa2c1fb6,ace6d73e7b71f8651fc70000aedaec78,Right
-77.0401302166974,38.9035898474875,FARRAGUT NORTH,http://www.wmata.com/rail/station_detail.cfm?station_id=4,SW CORNER OF L STREET NW AND CONNECTICUT AVENUE NW,red,"1720 L STREET NW, WASHINGTON, DC 20036",1370,Metro Station Entrance,2016/01/08 00:00:00+00,294828,MetroEntPt_48,375,,{D0A06DC6-FA47-4EE8-9077-17EF620A71C4},JLAY,2022/12/08 16:29:28+00,JLAY,2022/12/08 16:29:28+00,11025152,270.700012207031,588c63f3657a1f7e305b60086e233567,f366ca89b6ec90ba514c8bfbb728e7da,d16780db1c9d9f98fb21cbb34274b97d,Left
-77.0391795478565,38.9027814810608,FARRAGUT NORTH,http://www.wmata.com/rail/station_detail.cfm?station_id=4,NE CORNER OF 17TH STREET NW AND K STREET NW,red,"1705 K STREET NW, WASHINGTON, DC 20036",1370,Metro Station Entrance,2016/01/08 00:00:00+00,294828,MetroEntPt_50,377,,{96AC2E1D-719B-46BD-8C76-9588880F5276},JLAY,2022/12/08 16:29:28+00,JLAY,2022/12/08 16:29:28+00,11025152,160.800003051758,588c63f3657a1f7e305b60086e233567,79c76613682f1b1b1855eb25350f78ba,217ad89d885db8b2cf5baa1932fd4a1c,Right
-77.0419704164549,38.9016297300719,FARRAGUT WEST,http://www.wmata.com/rail/station_detail.cfm?station_id=38,NW CORNER OF 18TH STREET NW AND I STREET NW,"blue, orange, silver","900 18TH STREET NW, WASHINGTON, DC 20006",1370,Metro Station Entrance,2016/01/08 00:00:00+00,294819,MetroEntPt_51,378,,{1A156D9E-B3DC-4DBE-8A84-A340B436A3B5},JLAY,2022/12/08 16:29:28+00,JLAY,2022/12/08 16:29:28+00,11001802,1057,eb9471c89a6eeec7ae0913a202794dd4,691a7398c24830fb66378897c3a6de38,02870ffba068b47430814960fe4a05f8,Left
-77.0391690862877,38.9011766726299,FARRAGUT WEST,http://www.wmata.com/rail/station_detail.cfm?station_id=38,SE CORNER OF 17TH STREET NW AND I STREET NW,"blue, orange, silver","837 17TH STREET NW, WASHINGTON, DC 20006",1370,Metro Station Entrance,2016/01/08 00:00:00+00,294819,MetroEntPt_53,380,,{BAA99D83-BFF2-4403-8564-403F82C64920},JLAY,2022/12/08 16:29:28+00,JLAY,2022/12/08 16:29:28+00,11047772,2408.19995117188,436d47d4e49c96c3b9898d24db0ccf04,436d47d4e49c96c3b9898d24db0ccf04,e139194adeb91ec2c0979103fdae6649,Left
-77.0349525712365,38.9011372925325,MCPHERSON SQUARE,http://www.wmata.com/rail/station_detail.cfm?station_id=36,SW CORNER OF VERMONT AVENUE NW AND I STREET NW,"blue, orange, silver","820 VERMONT ST NW, WASHINGTON, DC 20005",1370,Metro Station Entrance,2016/01/08 00:00:00+00,294841,MetroEntPt_54,381,,{BE45F3B5-65F3-4EC3-8106-AC5CF8BE5AD3},JLAY,2022/12/08 16:29:28+00,JLAY,2022/12/08 16:29:28+00,11047772,2041.40002441406,fc7ed140160e21f7aee78840827d726e,25996af94b6093575600b0e08de9870c,9079b3b0e34e8635598362dd07c073e5,Left
-77.0322275340471,38.900922325888,MCPHERSON SQUARE,http://www.wmata.com/rail/station_detail.cfm?station_id=36,SW CORNER OF 14TH STREET NW AND I STREET NW,"blue, orange, silver","1400 I STREET NW, WASHINGTON, DC 20005",1370,Metro Station Entrance,2016/01/08 00:00:00+00,294841,MetroEntPt_56,383,,{D82DB26A-2C0A-42A8-BAA0-E606A3367907},JLAY,2022/12/08 16:29:28+00,JLAY,2022/12/08 16:29:28+00,11001402,1264.19995117188,c0deae43d727ee5c2c2799c5c52584f4,6d3ec3a487710ded909b29982d0d5cc9,60673f56c29ca5eac0b6b9dbd9c26a5f,Left
-77.0216556756703,38.8996400548384,GALLERY PL-CHINATOWN,http://www.wmata.com/rail/station_detail.cfm?station_id=21,SE CORNER OF 7TH STREET NW AND H STREET NW,"red, green, yellow","630 H STREET NW, WASHINGTON, DC 20001",1370,Metro Station Entrance,2016/01/08 00:00:00+00,294833,MetroEntPt_59,385,,{16CCD9B6-8CAD-4E51-BF16-BC33BC1411F6},JLAY,2022/12/08 16:29:28+00,JLAY,2023/07/28 19:04:41+00,11042442,1184.69995117188,d27e54246ab6d2b8fac9e6fa07ceb8c8,6844a5def96196793c4f126fc5687d2f,e47364e6a516bd7087004c0f0a23b66e,Left
-76.9468285765765,38.8995769758175,MINNESOTA AVE,http://www.wmata.com/rail/station_detail.cfm?station_id=64,SW SIDE OF KENILWORTH AVENUE NE,orange,"4000 MINNESOTA AVENUE NE, WASHINGTON, DC 20019",1370,Metro Station Entrance,2016/01/08 00:00:00+00,294856,MetroEntPt_60,386,,{571FE35D-588D-4403-9BFF-E2ED2C2FBD74},JLAY,2022/12/08 16:29:28+00,JLAY,2022/12/08 16:29:28+00,12051803,1469.80004882812,223a93d4e914ff64eb7b5310f078a592,d21946dfa7724f6d04c5d97e7dc68909,8f88f8eacfc5aaedc633f3eb08f882ae,Right
-76.9469270047681,38.8986148733256,MINNESOTA AVE,http://www.wmata.com/rail/station_detail.cfm?station_id=64,NW SIDE OF MINNESOTA AVENUE NE,orange,"4000 MINNESOTA AVENUE NE, WASHINGTON, DC 20019",1370,Metro Station Entrance,2016/01/08 00:00:00+00,294856,MetroEntPt_64,389,,{102F943D-27AD-4770-AFF9-72A9A20893AA},JLAY,2022/12/08 16:29:28+00,JLAY,2022/12/08 16:29:28+00,12061162,1130.69995117188,72b21a1d7f27c4930f68b811818827d5,88352eec5365d644a5a7064e7c561b99,802917ab543845797c08770d4fa66021,Left
-77.0278938762469,38.898526550385,METRO CENTER,http://www.wmata.com/rail/station_detail.cfm?station_id=1,NE CORNER OF G STREET NW AND 12TH STREET NW ,"red, blue, orange, silver","701 12TH STREET NW, WASHINGTON, DC 20005",1370,Metro Station Entrance,2016/01/08 00:00:00+00,294812,MetroEntPt_65,390,,{29B3BFD3-A738-4E9A-92E7-AEFC2CEBA2A4},JLAY,2022/12/08 16:29:28+00,JLAY,2022/12/08 16:29:28+00,11001202,895,1a81a26188269109a590cbfe306f0ca6,79ab87df4d60a402eea66caa07b13004,c13e6737a8670b590a3e42636f6a199e,Right
-77.0294075075927,38.8984401943104,METRO CENTER,http://www.wmata.com/rail/station_detail.cfm?station_id=1,NE CORNER OF G STREET NW AND 13TH STREET NW,"red, blue, orange, silver","607 13TH STREET NW, WASHINGTON, DC 20005",1370,Metro Station Entrance,2016/01/08 00:00:00+00,294812,MetroEntPt_66,391,,{39414F55-F04B-4875-911F-9289C674201B},JLAY,2022/12/08 16:29:28+00,JLAY,2022/12/08 16:29:28+00,11038612,1509.09997558594,69a1e65b6636ea005b59e7efff05727d,411d7edfd39ef7c8230c1fee4443d6b4,2d2466865c4fdaaaedf59987d3d92b0c,Right
-77.0266718899543,38.8984347703224,METRO CENTER,http://www.wmata.com/rail/station_detail.cfm?station_id=1,NE CORNER OF G STREET NW AND 11TH STREET NW,"red, blue, orange, silver","665 11TH STREET NW, WASHINGTON, DC 20005",1370,Metro Station Entrance,2016/01/08 00:00:00+00,294812,MetroEntPt_67,392,,{FF11BE64-7D9E-430F-9BA0-9FDAEBB7BC10},JLAY,2022/12/08 16:29:28+00,JLAY,2022/12/08 16:29:28+00,11038612,1271.90002441406,cdd58470a73c57d0214d16c134c7f0b2,cdd58470a73c57d0214d16c134c7f0b2,42a1073e0cc75db50b96397de25dffca,Right
-77.0072287549057,38.8983995224493,UNION STATION,http://www.wmata.com/rail/station_detail.cfm?station_id=25,NE CORNER OF MASSACHUSETTS AVE NE AND 1 ST NE,red,"701 1ST STREET NE, WASHINGTON, DC 20002",1370,Metro Station Entrance,2016/01/08 00:00:00+00,294849,MetroEntPt_68,393,,{8C1B5A72-0575-4515-8EB5-ECB09A6D7090},JLAY,2022/12/08 16:29:28+00,JLAY,2022/12/08 16:29:28+00,12000102,861.400024414062,6756a92ec8db4c1c36ac572b83cfdb9a,6756a92ec8db4c1c36ac572b83cfdb9a,4ddb992257036a82eda9336a81cffc15,Right
-77.0267940454131,38.8980808127736,METRO CENTER,http://www.wmata.com/rail/station_detail.cfm?station_id=1,SE CORNER OF G STREET NW AND 11TH STREET NW,"red, blue, orange, silver","665 11TH STREET NW, WASHINGTON, DC 20005",1370,Metro Station Entrance,2016/01/08 00:00:00+00,294812,MetroEntPt_69,394,,{8B50FDFA-5F19-452F-BF67-600BBCEE3F2D},JLAY,2022/12/08 16:29:28+00,JLAY,2022/12/08 16:29:28+00,11001102,370.399993896484,7f1692ec4ce1e02491d41cce3d7fee7b,7f1692ec4ce1e02491d41cce3d7fee7b,bdd07d5df04f1d67961e943baa55dc02,Right
-77.0237687395638,38.8980559558533,GALLERY PL-CHINATOWN,http://www.wmata.com/rail/station_detail.cfm?station_id=21,SE CORNER OF 9TH STREET NW AND G STREET NW,"red, green, yellow","625 9TH STREET NW, WASHINGTON, DC 20001",1370,Metro Station Entrance,2016/01/08 00:00:00+00,294833,MetroEntPt_70,395,,{DA5BE100-BBC9-4949-8D7A-28640DAAFC04},JLAY,2022/12/08 16:29:28+00,JLAY,2023/07/28 19:04:41+00,11000902,935.900024414062,597874333e102616074dea2c8beb938c,ff8cd3848974ee95d2f6c0c01ae5128b,c2804f37a97dc976e11e36ab09efc199,Right
-77.0293839615128,38.8980337969203,METRO CENTER,http://www.wmata.com/rail/station_detail.cfm?station_id=1,SE CORNER OF G STREET NW AND 13TH STREET NW ,"red, blue, orange, silver","607 13TH STREET NW, WASHINGTON, DC 20005",1370,Metro Station Entrance,2016/01/08 00:00:00+00,294812,MetroEntPt_71,396,,{09A85376-54BF-4327-932A-80F281697430},JLAY,2022/12/08 16:29:28+00,JLAY,2022/12/08 16:29:28+00,11001302,286.299987792969,7cf93bca529e2f369fb058c3285db9b7,7cf93bca529e2f369fb058c3285db9b7,77b2b0e23d0a94cbb6fbd832a7ccabda,Right
-77.0215674165894,38.8975442395256,GALLERY PL-CHINATOWN,http://www.wmata.com/rail/station_detail.cfm?station_id=21,NE CORNER OF 7TH STREET NW AND F STREET NW,"red, green, yellow","625 7TH STREET NW, WASHINGTON, DC 20001",1370,Metro Station Entrance,2016/01/08 00:00:00+00,294833,MetroEntPt_73,398,,{6F8A544D-5BC7-424D-A445-F3F10BB1C715},JLAY,2022/12/08 16:29:28+00,JLAY,2023/07/28 19:04:41+00,11034382,988.5,de4fb55d78d01995af5b328a4d72a315,de4fb55d78d01995af5b328a4d72a315,626434cdae587266d2104a64f80e608e,Right
-77.0072020683264,38.897492192705,UNION STATION,http://www.wmata.com/rail/station_detail.cfm?station_id=25,NE CORNER OF 1ST STREET NE AND MASSACHUSETTS AVENUE NE,red,"625 1ST STREET NE, WASHINGTON, DC 20002",1370,Metro Station Entrance,2016/01/08 00:00:00+00,294849,MetroEntPt_74,399,,{76FD868F-2E1F-45CA-BFD1-4E30328009F5},JLAY,2022/12/08 16:29:28+00,JLAY,2022/12/08 16:29:28+00,12000102,764.900024414062,6756a92ec8db4c1c36ac572b83cfdb9a,6756a92ec8db4c1c36ac572b83cfdb9a,4ddb992257036a82eda9336a81cffc15,Right
-77.0285723581336,38.8971549710485,METRO CENTER,http://www.wmata.com/rail/station_detail.cfm?station_id=1,SW CORNER OF 12TH ST NW AND F ST NW,"red, blue, orange, silver","1200 F STREET NW, WASHINGTON, DC 20005",1370,Metro Station Entrance,2016/01/08 00:00:00+00,294812,MetroEntPt_75,400,,{A462033B-93F4-405F-B589-609C3495B018},JLAY,2022/12/08 16:29:28+00,JLAY,2022/12/08 16:29:28+00,11034382,1603.80004882812,d067a28943c0d7cca5363f0ca12ce14a,d067a28943c0d7cca5363f0ca12ce14a,fb17537d38e7dc13e82712dfd0b30b53,Left
-77.0175252709552,38.8970597614359,JUDICIARY SQUARE,http://www.wmata.com/rail/station_detail.cfm?station_id=23,SOUTH SIDE OF F STREET NW BETWEEN 4TH STREET NW AND 5TH STREET NW,red,"450 F STREET NW, WASHINGTON, DC 20001",1370,Metro Station Entrance,2016/01/08 00:00:00+00,294829,MetroEntPt_76,401,,{222E0C0F-57CE-414D-9718-59119A46C503},JLAY,2022/12/08 16:29:28+00,JLAY,2022/12/08 16:29:28+00,11034382,638.299987792969,e42e4454f674aabac68ecc943ea8c2a4,e42e4454f674aabac68ecc943ea8c2a4,de137015f6cd89674b382033f93b1ee6,Left
-77.0287153717556,38.8938344785676,FEDERAL TRIANGLE,http://www.wmata.com/rail/station_detail.cfm?station_id=53,RONALD REAGAN BUILDING - WEST SIDE OF 12TH STREET NW BETWEEN PENNSYLVANIA AVENUE NW AND CONSTITUTION AVENUE NW,"blue, orange, silver","302 12TH STREET NW, WASHINGTON, DC 20004",1370,Metro Station Entrance,2016/01/08 00:00:00+00,294809,MetroEntPt_82,405,,{97D8A579-D991-442C-91F1-A9E49F49561C},JLAY,2022/12/08 16:29:28+00,JLAY,2022/12/08 16:29:28+00,0,0,0,0,0,0
-76.9374492515459,38.8904052325828,BENNING ROAD,http://www.wmata.com/rail/station_detail.cfm?station_id=90,NE CORNER OF BENNING ROAD NE AND CENTRAL AVENUE NE,"blue, silver","4500 BENNING ROAD NE, WASHINGTON, DC 20019",1370,Metro Station Entrance,2016/01/08 00:00:00+00,294851,MetroEntPt_85,408,,{F3B325AD-8E63-4F53-BD00-A99556FB6B3F},JLAY,2022/12/08 16:29:28+00,JLAY,2022/12/08 16:29:28+00,12015342,4173.39990234375,14845ab44716b38f07cb877c89f76868,14845ab44716b38f07cb877c89f76868,2c98696b4183ac426031f35d583981fc,Left
-77.0284374338889,38.8890782780182,SMITHSONIAN,http://www.wmata.com/rail/station_detail.cfm?station_id=54,JEFFERSON DRIVE SW BETWEEN 12TH ST SW and 13TH ST NW,"blue, orange, silver","1201 JEFFERSON DRIVE SW, WASHINGTON, DC 20004",1370,Metro Station Entrance,2016/01/08 00:00:00+00,294876,MetroEntPt_86,409,,{8A730302-EA1A-4CF0-8224-0F9BBBE9C956},JLAY,2022/12/08 16:29:28+00,JLAY,2022/12/08 16:29:28+00,14001242,45.2999992370605,34bb6695d753780003a9bf0a30e3ae78,7fd437969710660d683b2e1a41a915fa,01483546e5e585233c572765c573ca7a,Right
-77.0285664622737,38.8873837162913,SMITHSONIAN,http://www.wmata.com/rail/station_detail.cfm?station_id=54,SW CORNER OF INDEPENDENCE AVENUE SW AND 12TH STREET SW,"blue, orange, silver","1200 INDEPENDENCE AVENUE SW, WASHINGTON, DC 20004",1370,Metro Station Entrance,2016/01/08 00:00:00+00,294876,MetroEntPt_89,411,,{FE014BFE-6A61-440D-BA3B-CF66A7E822B9},JLAY,2022/12/08 16:29:28+00,JLAY,2022/12/08 16:29:28+00,14047972,1692,d6c5ace66f79e570e26b828beed50409,d6c5ace66f79e570e26b828beed50409,d76e34e9641baea929ec198c50c4954d,Left
-77.0215774890803,38.8862548989418,L'ENFANT PLAZA,http://www.wmata.com/rail/station_detail.cfm?station_id=82,SE CORNER OF 7TH STREET SW AND MARYLAND AVENUE SW,"green, yellow, orange, blue, silver","600 MARYLAND AVENUE SW, WASHINGTON, DC 20024",1370,Metro Station Entrance,2016/01/08 00:00:00+00,294875,MetroEntPt_90,412,,{91D80EC8-CF29-454C-8E48-6261C5CC4A6B},JLAY,2022/12/08 16:29:28+00,JLAY,2022/12/08 16:29:28+00,14059472,543,50ffa07c88b6791bd593a4a649f75d01,50ffa07c88b6791bd593a4a649f75d01,c75683d46486e5502c80ab83a1db18c3,Left
-77.0060653912861,38.8856726763198,CAPITOL SOUTH,http://www.wmata.com/rail/station_detail.cfm?station_id=59,WEST SIDE OF 1ST STREET SE BETWEEN C STREET SE AND D STREET SE,"blue, orange, silver","355 FIRST STREET SE, WASHINGTON, DC 20003",1370,Metro Station Entrance,2016/01/08 00:00:00+00,294860,MetroEntPt_93,415,,{17CB7A6A-C94F-472B-A075-2F76751FD4F3},JLAY,2022/12/08 16:29:28+00,JLAY,2022/12/08 16:29:28+00,13000102,460.5,df6822574daa3a9c269e9e448da12df6,bbc7083869f04303cdec1df72a12010c,5a97324400482755cdb182f0156fdba9,Right
-76.9770457749016,38.8856630928066,STADIUM-ARMORY,http://www.wmata.com/rail/station_detail.cfm?station_id=63,NE CORNER OF 19TH STREET SE AND C STREET SE,"blue, orange, silver","290 19TH STREET SE, WASHINGTON, DC 20003",1370,Metro Station Entrance,2016/01/08 00:00:00+00,294863,MetroEntPt_94,416,,{33D31C47-9CD2-4F57-A025-B20F286971D5},JLAY,2022/12/08 16:29:28+00,JLAY,2023/07/28 19:04:41+00,13001902,460,6abb362ff34b8ccba0fd36b199a359b0,ed41e004900463c393154a713c68eafd,eaa9d30b4eec6daad59b38798e8d0cf6,Left
-77.0153773253834,38.8848821824936,FEDERAL CENTER SW,http://www.wmata.com/rail/station_detail.cfm?station_id=58,SE CORNER OF 3RD ST SW AND D ST SW,"blue, orange, silver","401 3RD STREET SW, WASHINGTON, DC 20024",1370,Metro Station Entrance,2016/01/08 00:00:00+00,294808,MetroEntPt_97,419,,{C68A75F3-64F4-4015-8D6A-3BA5924F8FFD},JLAY,2022/12/08 16:29:28+00,JLAY,2022/12/08 16:29:28+00,14000302,546.400024414062,f6d07f465d43e05da234c0badf24526f,f6d07f465d43e05da234c0badf24526f,53a15e6b89d8e71b9fea573f03b35495,Right
-77.0174155615512,38.9751039484928,TAKOMA,http://www.wmata.com/rail/station_detail.cfm?station_id=29,NE SIDE OF CEDAR STREET NW AND BLAIR ROAD NW,red,"327 CEDAR STREET NW, WASHINGTON, DC 20012",1370,Metro Station Entrance,2016/01/08 00:00:00+00,294822,MetroEntPt_99,421,,{DF626655-2B55-43E4-9044-91957DC8BF03},JLAY,2022/12/08 16:29:28+00,JLAY,2022/12/08 16:29:28+00,11021322,230.600006103516,2ad8cb903f5011192d78fa88382ee618,e0eb7f325fea4db466d0b2717bd4e7f8,556bc81db5fa21f69faf023cb461a5ad,Right
-77.0854021268448,38.9607480459628,FRIENDSHIP HEIGHTS,http://www.wmata.com/rail/station_detail.cfm?station_id=11,NE CORNER OF WISCONSIN AVENUE NW AND WESTERN AVENUE NW,red,"1 WISCONSIN CIRCLE NW, WASHINGTON, DC 20015",1370,Metro Station Entrance,2016/01/08 00:00:00+00,294847,MetroEntPt_100,422,,{6D2E0AEF-AB7C-44CF-BC8D-239E4D852C73},JLAY,2022/12/08 16:29:28+00,JLAY,2022/12/08 16:29:28+00,11092692,1839.80004882812,74eee0a27f601b60846ee3a151183723,74eee0a27f601b60846ee3a151183723,e33d52e02093414d1a585bd4de8f4d79,Right
-77.0857653235589,38.9604530838474,FRIENDSHIP HEIGHTS,http://www.wmata.com/rail/station_detail.cfm?station_id=11,SW CORNER OF WISCONSIN AVENUE NW AND WESTERN AVENUE NW,red,"1 WISCONSIN CIRCLE NW, WASHINGTON, DC 20015",1370,Metro Station Entrance,2016/01/08 00:00:00+00,294847,MetroEntPt_101,423,,{BF290129-A3B0-4920-B5DA-264F6A5742A3},JLAY,2022/12/08 16:29:28+00,JLAY,2022/12/08 16:29:28+00,11094052,6866.10009765625,b7d78a8a3b5348964b0131bad0fd031c,b7d78a8a3b5348964b0131bad0fd031c,e349afb5096a72ede1e16e8b37035ff2,Left
-77.0024910090703,38.9526538724949,FORT TOTTEN,http://www.wmata.com/rail/station_detail.cfm?station_id=28,NORTH SIDE OF GALLOWAY STREET NE,"red, green, yellow","550 GALLOWAY STREET NE, WASHINGTON, DC 20011",1370,Metro Station Entrance,2016/01/08 00:00:00+00,294852,MetroEntPt_104,426,,{2BEC835B-1639-4446-A109-922074622F34},JLAY,2022/12/08 16:29:28+00,JLAY,2022/12/08 16:29:28+00,12039262,231,7cc2f472ff182b0915808f876f0056ce,6935a630135974791e60f04b0fc13f26,b5181b86c16130c8b93d8e1b62859550,Left
-77.0801711441929,38.9483167855904,TENLEYTOWN-AU,http://www.wmata.com/rail/station_detail.cfm?station_id=10,WISCONSIN AVENUE NW BETWEEN RIVER RD NW AND ALBEMARLE ST NW,red,"4501 WISCONSIN AVENUE NW, WASHINGTON, DC 20016",1370,Metro Station Entrance,2016/01/08 00:00:00+00,294846,MetroEntPt_105,427,,{B47019EC-90A9-4340-95AB-DF748A15E483},JLAY,2022/12/08 16:29:28+00,JLAY,2023/07/28 19:04:41+00,11094052,5431.2001953125,3bd5b0989754a3308db09dc4942e185e,dfce4dbed72cb79ae506c2d5e0f8568e,da2378ad6ccdd07c3da524058272850f,Left
-77.0635743527483,38.9446308184012,VAN NESS-UDC,http://www.wmata.com/rail/station_detail.cfm?station_id=9,NE CORNER OF CONNECTICUT AVENUE NW AND VEAZEY TERRACE NW,red,"4200 CONNECTICUT AVENUE NW, WASHINGTON, DC 20008",1370,Metro Station Entrance,2016/01/08 00:00:00+00,294824,MetroEntPt_108,429,,{1170CB7A-ECAE-4219-8122-9F77F07E037D},JLAY,2022/12/08 16:29:28+00,JLAY,2023/07/28 19:04:41+00,11025152,5299.2001953125,5f11eb330d4aa9e5e2ccf76a0fb05d31,5f11eb330d4aa9e5e2ccf76a0fb05d31,e5364902a23b671e0540de05ddb39284,Right
-77.0640325265088,38.9445393684137,VAN NESS-UDC,http://www.wmata.com/rail/station_detail.cfm?station_id=9,NW CORNER OF CONNECTICUT AVENUE AND VEAZEY TERRACE NW,red,"4200 CONNECTICUT AVENUE NW, WASHINGTON, DC 20008",1370,Metro Station Entrance,2016/01/08 00:00:00+00,294824,MetroEntPt_109,430,,{8F96BF8D-3167-47F3-813E-1A0EE4E5A5AD},JLAY,2022/12/08 16:29:28+00,JLAY,2023/07/28 19:04:41+00,11089242,207.100006103516,dd38237e54f44b866eae2f8b2e22b364,dd38237e54f44b866eae2f8b2e22b364,a40de60914c23f7ecde7a453c6af7760,Right
-77.0247147679658,38.9371287944517,GEORGIA AVE-PETWORTH,http://www.wmata.com/rail/station_detail.cfm?station_id=76,WEST SIDE OF GEORGIA AVENUE NW BETWEEN QUINCY STREET NW AND NEW HAMPSHIRE AVENUE NW,"green,yellow","3700 GEORGIA AVENUE NW, WASHINGTON, DC 20010",1370,Metro Station Entrance,2016/01/08 00:00:00+00,294832,MetroEntPt_111,431,,{C0CEFEDE-3786-4FE4-B9F1-6EE4CCEC7B1A},JLAY,2022/12/08 16:29:28+00,JLAY,2023/07/28 19:04:41+00,11040042,2331.10009765625,bc21c26622cd6f0fcf74c4c452c6a594,bc21c26622cd6f0fcf74c4c452c6a594,c55b43328d3ae534ba475b90593a95f0,Left
-77.0241081512813,38.9370307397043,GEORGIA AVE-PETWORTH,http://www.wmata.com/rail/station_detail.cfm?station_id=76,NE CORNER OF GEORGIA AVENUE NW AND NEW HAMPSHIRE AVE NW,"green,yellow","3700 GEORGIA AVENUE NW, WASHINGTON, DC 20010",1370,Metro Station Entrance,2016/01/08 00:00:00+00,294832,MetroEntPt_112,432,,{7B3C7780-9F5B-4DBA-A797-C534C456A7E9},JLAY,2022/12/08 16:29:28+00,JLAY,2023/07/28 19:04:41+00,11064222,3303.10009765625,648deb72300cf3a88416a15c83dfd010,648deb72300cf3a88416a15c83dfd010,8e2e675f1dac1ade5405ff09ad1a4526,Left
-77.0852020565841,38.9602261181259,FRIENDSHIP HEIGHTS ELEVATOR,https://www.wmata.com/rider-guide/stations/friendship-hghts.cfm,EAST SIDE OF WISCONSIN AVENUE NW BETWEEN JENIFER STREET NW AND WESTERN AVENUE NW,red,"5337 WISCONSIN AVENUE NW, WASHINGTON, DC 20015",1370,Metro Station Elevator,2016/01/08 00:00:00+00,303188,MetroEntFullPt_219,641,,{2E561249-22A1-47E5-A8B5-7FCDB6AF32EB},JLAY,2023/07/28 17:37:18+00,JLAY,2023/07/28 19:42:07+00,11094052,6824.5,b7d78a8a3b5348964b0131bad0fd031c,b7d78a8a3b5348964b0131bad0fd031c,28d6fa0022d146a49f9c52e7e43b00f5,Right
-77.0418937330909,38.9014990553204,FARRAGUT WEST ELEVATOR,https://www.wmata.com/rider-guide/stations/farragut-west.cfm,NW CORNER OF 18TH STREET NW AND I STREET NW,"blue, orange, silver","900 18TH STREET NW, WASHINGTON, DC 20006",1370,Metro Station Elevator,2016/01/08 00:00:00+00,294819,MetroEntFullPt_88,642,,{EB8B3AC5-60EC-40B1-A30B-F2B32C126E8C},JLAY,2023/07/28 17:37:18+00,JLAY,2023/07/28 19:42:07+00,11001802,1047.90002441406,eb9471c89a6eeec7ae0913a202794dd4,691a7398c24830fb66378897c3a6de38,02870ffba068b47430814960fe4a05f8,Left
-77.0508613070186,38.9008428755964,FOGGY BOTTOM-GWU ELEVATOR,https://www.wmata.com/rider-guide/stations/foggy-bottom.cfm,NW CORNER OF 23RD STREET NW AND I STREET NW,"blue, orange, silver","890 23RD STREET NW, WASHINGTON, DC 20037",1370,Metro Station Elevator,2016/01/08 00:00:00+00,316428,MetroEntFullPt_89,643,,{FD5E2F3F-776F-412D-93E7-755A1A9D2E58},JLAY,2023/07/28 17:37:18+00,JLAY,2023/07/28 19:42:07+00,11002402,328.600006103516,9b6a8d440c5843d6b6bdd502ce490136,9b6a8d440c5843d6b6bdd502ce490136,6f5da77960a9d30d9a00582fc5d6b33f,Right
-77.0061559323066,38.885199109868,CAPITOL SOUTH ELEVATOR,https://www.wmata.com/rider-guide/stations/capitol-south.cfm,WEST SIDE OF 1ST STREET SE BETWEEN C STREET SE AND D STREET SE,"blue, orange, silver","355 FIRST STREET SE, WASHINGTON, DC 20003",1370,Metro Station Elevator,2016/01/08 00:00:00+00,294860,MetroEntFullPt_130,644,,{76F8D664-E661-480A-9B76-34A5666E321C},JLAY,2023/07/28 17:37:18+00,JLAY,2023/07/28 19:42:07+00,13026912,252.100006103516,287da5b0b310a64cd953b7ef20ee11d6,287da5b0b310a64cd953b7ef20ee11d6,b9cbc71be21e4abb98242424edf6f640,Left
-77.0792780245552,38.9481079881433,TENLEYTOWN-AU ELEVATOR,https://www.wmata.com/rider-guide/stations/tenleytown.cfm,NE CORNER OF ABLEMARLE STREET NW AND WISCONSIN AVENUE NW,red,"4501 WISCONSIN AVENUE NW, WASHINGTON, DC 20016",1370,Metro Station Elevator,2016/01/08 00:00:00+00,294846,MetroEntFullPt_215,645,,{DC2498C1-A654-42B0-ACF9-6C4D8925F6D8},JLAY,2023/07/28 17:37:18+00,JLAY,2023/07/28 19:42:07+00,11009492,2313.10009765625,c8c7e35eba0a28e1420c84ae263860b4,c8c7e35eba0a28e1420c84ae263860b4,185dc1b1474137719b587722fe3332ba,Right
-77.0445697126381,38.9107953232485,DUPONT CIRCLE ELEVATOR,https://www.wmata.com/rider-guide/stations/dupont-circle.cfm,SE CORNER OF 20TH STREET NW AND Q STREET NW,red,"1525 20TH ST NW, WASHINGTON, DC 20036",1370,Metro Station Elevator,2016/01/08 00:00:00+00,294836,MetroEntFullPt_216,646,,{09BB2151-E463-4413-AA0E-FB3091BEE4F6},JLAY,2023/07/28 17:37:18+00,JLAY,2023/07/28 19:42:07+00,11002002,1969.59997558594,f722985dc46de48ceb9eaf81f5615da4,f722985dc46de48ceb9eaf81f5615da4,e22a787f2d588c62fd2c975d27a45835,Right
-77.0528866133949,38.9254530051474,WOODLEY PARK-ZOO/ADAMS MORGAN ELEVATOR,https://www.wmata.com/rider-guide/stations/woodley-park.cfm,SW CORNER OF CONNECTICUT AVENUE NW AND WOODLEY STREET NW,red,"2690 CONNECTICUT AVENUE NW, WASHINGTON, DC 20008",1370,Metro Station Elevator,2016/01/08 00:00:00+00,316422,MetroEntFullPt_217,647,,{E48F322D-7766-4F3F-B4DF-3853380534E8},JLAY,2023/07/28 17:37:18+00,JLAY,2023/07/28 19:42:07+00,11094252,238.100006103516,b953c0951f9f110cf454bc0d3de4c604,a9b253b364258e4e100ad52331afe1f4,959cb49e0e6ea0ad4bf9158577d67b56,Left
-77.0635890160724,38.9439733224869,VAN NESS-UDC ELEVATOR,https://www.wmata.com/rider-guide/stations/van-ness.cfm,SW CORNER OF CONNECTICUT AVENUE AND VEAZEY STREET NW,red,"4220 CONNECTICUT AVENUE NW, WASHINGTON, DC 20008",1370,Metro Station Elevator,2016/01/08 00:00:00+00,316425,MetroEntFullPt_218,648,,{B1DAB282-1EF6-47D8-9811-804B78F740F3},JLAY,2023/07/28 17:37:18+00,JLAY,2023/07/28 19:42:07+00,11025152,5232.60009765625,aeed4dd7544fc1e179a48be91a2ece6e,360ed9c4430ac65fab86cb5c94f93e13,fdadd2d1aeaec6e11f03adcae83b8ebf,Left
-77.0584256623394,38.9357822517661,CLEVELAND PARK ELEVATOR,https://www.wmata.com/rider-guide/stations/cleveland-park.cfm,EAST SIDE OF CONNECTICUT AVENUE NW BETWEEN PORTER STREET NW AND ORDWAY STREET NW,red,"3517 CONNECTICUT AVENUE NW, WASHINGTON, DC 20008",1370,Metro Station Elevator,2016/01/08 00:00:00+00,316423,MetroEntFullPt_225,649,,{5FDE50DE-179D-4ADF-8ABD-29E5BB56E16F},JLAY,2023/07/28 17:37:18+00,JLAY,2023/07/28 19:42:07+00,11025152,4220.10009765625,98a7099a8736cd46d26caaab7581ff94,98a7099a8736cd46d26caaab7581ff94,341b4c60bbb3d3b73cf1433d8d47e2d0,Right
-77.0220771930026,38.8938750902759,ARCHIVES-NAVY MEMORIAL-PENN QUARTER ELEVATOR,https://www.wmata.com/rider-guide/stations/archives.cfm,SW CORNER OF 7TH STREET NW AND INDIANA AVENUE NW,"green,yellow","300 7TH STREET NW, WASHINGTON, DC 20004",1370,Metro Station Elevator,2016/01/08 00:00:00+00,316356,MetroEntFullPt_232,650,,{098D344A-B49E-4C67-AE90-20A8C6E0B291},JLAY,2023/07/28 17:37:18+00,JLAY,2023/07/28 19:42:07+00,11000702,471.5,a4da5e911c5251b23c5aa97403b7dc13,a4da5e911c5251b23c5aa97403b7dc13,06908497a2eb5604f4871ebc3f7ab22e,Left
-77.0160373657282,38.8849114970853,FEDERAL CENTER SW ELEVATOR,https://www.wmata.com/rider-guide/stations/federal-ctr-sw.cfm,D STREET SW BETWEEN 3RD STREET SW AND 4TH STREET SW,"blue, orange, silver","401 3RD STREET SW, WASHINGTON, DC 20024",1370,Metro Station Elevator,2016/01/08 00:00:00+00,300374,MetroEntFullPt_34,651,,{B0EED617-D875-43AE-8A28-F929D80E8304},JLAY,2023/07/28 17:37:18+00,JLAY,2023/07/28 19:42:07+00,14026912,356.100006103516,cd8ec817ac860aa4e096338ca5a20874,cd8ec817ac860aa4e096338ca5a20874,0a2d4e423888f1ad442b499a12537f0b,Left
-76.946703279116,38.8988185136412,MINNESOTA AVE ELEVATOR,https://www.wmata.com/rider-guide/stations/minnesota-ave.cfm,NW SIDE OF MINNESOTA AVENUE NE,orange,"4120 MINNESOTA AVENUE NE, WASHINGTON, DC 20019",1370,Metro Station Elevator,2016/01/08 00:00:00+00,316352,MetroEntFullPt_38,652,,{58A2C0B0-142F-489F-B277-97E136965E30},JLAY,2023/07/28 17:37:18+00,JLAY,2023/07/28 19:42:07+00,12061162,1156.30004882812,72b21a1d7f27c4930f68b811818827d5,b100b710ab835df3bface41fc0e1ae52,2f7c9e889060fd44ff8949e29c6b5ef1,Left
-77.0047081863788,38.8766253694109,NAVY YARD-BALLPARK ELEVATOR,https://www.wmata.com/rider-guide/stations/navy-yard.cfm,NW CORNER OF NEW JERSEY AVENUE SE AND M STREET SE,green,"1155 NEW JERSEY AVENUE SE, WASHINGTON, DC 20003",1370,Metro Station Elevator,2016/01/08 00:00:00+00,310434,MetroEntFullPt_39,653,,{C5578EA9-162B-4756-9BF9-9A8EF95E0E05},JLAY,2023/07/28 17:37:18+00,JLAY,2023/07/28 19:42:07+00,13057852,380.100006103516,ebe4b6e68fefe3a7173ef0d211cc0b23,f8f07b22c182ed84c4eaa071ead243e3,3c01c2457cd6e03747cb275ce3c0bf8a,Left
-77.021619956873,38.9142296055756,SHAW-HOWARD U ELEVATOR,https://www.wmata.com/rider-guide/stations/shaw-howard.cfm,NE CORNER OF S STREET NW AND 7TH STREET NW,"green,yellow","1801 7TH ST NW, WASHINGTON, DC 20001",1370,Metro Station Elevator,2016/01/08 00:00:00+00,310410,MetroEntFullPt_40,654,,{AEC0F987-46F7-47C8-8A81-FB6E6DA2BAA5},JLAY,2023/07/28 17:37:18+00,JLAY,2023/07/28 19:42:07+00,11077672,982.700012207031,9b326fbe551d7a9713ae615286aa0639,35c4f6b78e54aff33ef8214577f896b6,c8d4a2dc2ff51994f35ab0d7ddddf7f1,Right
-77.0289230331415,38.9167752589067,U ST/AFRICAN AMER CIVIL WAR MEM/CARDOZO ELEV,https://www.wmata.com/rider-guide/stations/u-street.cfm,U STREET NW BETWEEN 12TH ST NW AND 13TH STREET NW,"green,yellow","1260 U STREET NW, WASHINGTON, DC 20009",1370,Metro Station Elevator,2016/01/08 00:00:00+00,316436,MetroEntFullPt_41,655,,{BB29AD9B-7E49-4849-89BF-EE3B0977F110},JLAY,2023/07/28 17:37:18+00,JLAY,2023/07/28 19:42:07+00,11087232,1333.80004882812,f70c70fc8b95392ca28cad5ff2ef10fa,43b47f4bdcc489101b21da22be611bf7,aba1a5ff6531eb33bb67d46553a0090d,Left
-77.0173575065445,38.8766361733747,WATERFRONT ELEVATOR,https://www.wmata.com/rider-guide/stations/waterfront.cfm,NE CORNER OF M STREET SW AND 4TH STREET SW,green,"399 M STREET SW, WASHINGTON, DC 20024",1370,Metro Station Elevator,2016/01/08 00:00:00+00,294877,MetroEntFullPt_44,656,,{E0803E9A-66F9-4120-9B74-898AC34ADDDF},JLAY,2023/07/28 17:37:18+00,JLAY,2023/07/28 19:42:07+00,14057852,716.700012207031,4f9d5d2c03ee0a41078e6bd8797f9735,4f9d5d2c03ee0a41078e6bd8797f9735,f3ad128f50d9ab687822983af5166db4,Right
-77.0246735845862,38.9368106840789,GEORGIA AVE-PETWORTH ELEVATOR,https://www.wmata.com/rider-guide/stations/georgia-ave.cfm,WEST SIDE OF GEORGIA AVENUE NW BETWEEN QUINCY STREET NW AND NEW HAMPSHIRE AVENUE NW,"green,yellow","3728 GEORGIA AVENUE NW, WASHINGTON, DC 20010",1370,Metro Station Elevator,2016/01/08 00:00:00+00,316439,MetroEntFullPt_47,657,,{922495E3-6FEF-45E3-B169-F3EC12E66822},JLAY,2023/07/28 17:37:18+00,JLAY,2023/07/28 19:42:07+00,11040042,2291.5,bc21c26622cd6f0fcf74c4c452c6a594,bc21c26622cd6f0fcf74c4c452c6a594,c55b43328d3ae534ba475b90593a95f0,Left
-76.9944438493096,38.9337539104942,BROOKLAND-CUA ELEVATOR,https://www.wmata.com/rider-guide/stations/brookland.cfm,NW CORNER OF BUS BAY AND BUNKER HILL RD NE,red,"890 MONROE STREET NE, WASHINGTON, DC 20017",1370,Metro Station Elevator,2016/01/08 00:00:00+00,316412,MetroEntFullPt_49,658,,{5293BF12-57D7-4ACF-A42E-136B0E671F4E},JLAY,2023/07/28 17:37:18+00,JLAY,2023/07/28 19:42:07+00,12018982,14.6000003814697,2e7c12da1f5c44acb196bd99725bfa9e,2e7c12da1f5c44acb196bd99725bfa9e,a19e0b5b975267b9aa30f7f949a942c0,Right
-77.017464555115,38.8968270574271,JUDICIARY SQUARE NE ELEVATOR,https://www.wmata.com/rider-guide/stations/judiciary-sq.cfm,SOUTH SIDE OF F STREET NW BETWEEN 4TH STREET NW AND 5TH STREET NW,red,"450 F STREET NW, WASHINGTON, DC 20001",1370,Metro Station Elevator,2016/01/08 00:00:00+00,294829,MetroEntFullPt_53,659,,{EE941884-AC24-4ADE-BB05-6C294226A465},JLAY,2023/07/28 17:37:18+00,JLAY,2023/07/28 19:42:07+00,0,0,0,0,0,0
-77.0176491309872,38.8966655367118,JUDICIARY SQUARE SW ELEVATOR,https://www.wmata.com/rider-guide/stations/judiciary-sq.cfm,SOUTH SIDE OF F STREET NW BETWEEN 4TH STREET NW AND 5TH STREET NW,red,"450 F STREET NW, WASHINGTON, DC 20001",1370,Metro Station Elevator,2016/01/08 00:00:00+00,294829,MetroEntFullPt_54,660,,{DFF71CE3-54F9-419F-B79E-ACC3E03FA197},JLAY,2023/07/28 17:37:18+00,JLAY,2023/07/28 19:42:07+00,0,0,0,0,0,0
-76.9960404550474,38.8842581532658,EASTERN MARKET ELEVATOR,https://www.wmata.com/rider-guide/stations/eastern-market.cfm,SOUTH SIDE OF PENNSYLVANIA AVENUE SE BETWEEN 7TH STREET SE AND 8TH STREET SE,"blue, orange, silver","725 PENNSYLVANIA AVENUE SE, WASHINGTON, DC 20003",1370,Metro Station Elevator,2016/01/08 00:00:00+00,316432,MetroEntFullPt_64,661,,{FA5912F8-F744-4331-AF30-ACC830A14311},JLAY,2023/07/28 17:37:18+00,JLAY,2023/07/28 19:42:07+00,13000702,592.900024414062,a3b6aa865a52c1cd36e1a9c79031b66c,a3b6aa865a52c1cd36e1a9c79031b66c,91293597b29c5c3f3cf63ffd28e813a0,Left
-77.0223697255337,38.9055120083864,MT VERNON SQ 7TH ST-CONVENTION CENTER ELEV,https://www.wmata.com/rider-guide/stations/mt-vernon-sq.cfm,SW CORNER OF 7TH STREET NW AND M STREET NW,"green, yellow","700 M STREET NW, WASHINGTON, DC 20001",1370,Metro Station Elevator,2016/01/08 00:00:00+00,294834,MetroEntFullPt_68,662,,{B6D7A876-117D-405F-B3EA-F5B602DDAB99},JLAY,2023/07/28 17:37:18+00,JLAY,2023/07/28 19:42:07+00,11057852,1109.90002441406,678d5000b79dcbb67fa2afcb07f1b840,1d07bdee35622cbe2dfc2fbd48718c47,931ce92e168a6314c159cbb74104e842,Left
-76.937547578048,38.8905584546385,BENNING ROAD ELEVATOR,https://www.wmata.com/rider-guide/stations/benning-rd.cfm,NE CORNER OF BENNING ROAD NE AND CENTRAL AVENUE NE,"blue, silver","4500 CENTRAL AVENUE NE, WASHINGTON, DC 20019",1370,Metro Station Elevator,2016/01/08 00:00:00+00,316344,MetroEntFullPt_77,663,,{65F7F95B-988B-40E4-B507-D3092D651123},JLAY,2023/07/28 17:37:18+00,JLAY,2023/07/28 19:42:07+00,12015342,4159.2001953125,14845ab44716b38f07cb877c89f76868,14845ab44716b38f07cb877c89f76868,2c98696b4183ac426031f35d583981fc,Left
-77.0328213625975,38.9285644759406,COLUMBIA HEIGHTS ELEVATOR,https://www.wmata.com/rider-guide/stations/columbia-hghts.cfm,SW CORNER OF IRVING STREET NW AND 14TH STREET NW,"green,yellow","3030 14TH STREET NW, WASHINGTON, DC 20009",1370,Metro Station Elevator,2016/01/08 00:00:00+00,294815,MetroEntFullPt_27,664,,{2F83FDEA-141D-4BEC-ABCA-FDA0AAC8A660},JLAY,2023/07/28 17:37:18+00,JLAY,2023/07/28 19:42:07+00,11001402,4260.5,a4d2005f165c6715cc9af1d1a8e6d05a,173cd0f44bd2d2fdd865377f74304128,bd9b65c40be3043f95faab2e8f1df5ec,Left
-76.9878074426823,38.8451155595234,CONGRESS HEIGHTS ELEVATOR,https://www.wmata.com/rider-guide/stations/congress-hghts.cfm,NORTH SIDE OF ALABAMA AVENUE SE AT 13TH STREET SE,green,"1300 ALABAMA AVENUE SE, WASHINGTON, DC 20020",1370,Metro Station Elevator,2016/01/08 00:00:00+00,316358,MetroEntFullPt_32,665,,{AF90C0CD-F7A2-43ED-B3D7-3B1B5B2D26C3},JLAY,2023/07/28 17:37:18+00,JLAY,2023/07/28 19:42:07+00,13009362,1045,afcb366fc5da216d0d8be130517a2885,60568eb9db5be5ffb3349de70c96fd19,529060a64d47dfee68054840dca4f3ce,Left
-76.9348475355625,38.9082048775537,DEANWOOD ELEVATOR,https://www.wmata.com/rider-guide/stations/deanwood.cfm,SOUTH SIDE OF POLK STREET NE AT OLIVE STREET NE,orange,"4720 MINNESOTA AVENUE NE, WASHINGTON, DC 20019",1370,Metro Station Elevator,2016/01/08 00:00:00+00,294855,MetroEntFullPt_33,666,,{D0ECBB5B-6A4B-4720-85E9-D649DDE6E48D},JLAY,2023/07/28 17:37:18+00,JLAY,2023/07/28 19:42:07+00,0,0,0,0,0,0
-77.0221107368726,38.8859899797788,L'ENFANT PLAZA ELEVATOR,https://www.wmata.com/rider-guide/stations/lenfant-plaza.cfm,SW CORNER OF 7TH STREET SW AND MARYLAND AVENUE SW,"green, yellow, orange, blue, silver","325 7TH STREET SW, WASHINGTON, DC 20024",1370,Metro Station Elevator,2016/01/08 00:00:00+00,316348,MetroEntFullPt_132,667,,{3633EA8A-B040-4C75-BC1F-6F18E04EBEF3},JLAY,2023/07/28 17:37:18+00,JLAY,2023/07/28 19:42:07+00,14000702,405.399993896484,7c06ce511e2aa073f1751cfa5c64d699,7c06ce511e2aa073f1751cfa5c64d699,6e79be147f5a1a8b8f99026fe203261f,Right
-77.028548595699,38.8877555866101,SMITHSONIAN ELEVATOR,https://www.wmata.com/rider-guide/stations/smithsonian.cfm,NW CORNER OF INDEPENDENCE AVENUE SW AND 12TH STREET SW,"blue, orange, silver","1200 INDEPENDENCE AVENUE SW, WASHINGTON, DC 20004",1370,Metro Station Elevator,2016/01/08 00:00:00+00,294873,MetroEntFullPt_134,668,,{D97FF6F1-A887-407A-A7AF-1AF986243D8A},JLAY,2023/07/28 17:37:18+00,JLAY,2023/07/28 19:42:07+00,14047972,1689.19995117188,d6c5ace66f79e570e26b828beed50409,d6c5ace66f79e570e26b828beed50409,c18c257a15214695b2b6a97a05d69e44,Right
-77.0850192177201,38.9585262207297,FRIENDSHIP HEIGHTS ELEVATOR,https://www.wmata.com/rider-guide/stations/friendship-hghts.cfm,WEST SIDE OF WISCONSIN AVENUE NW BETWEEN JENIFER STREET NW AND INGOMAR STREET NW,red,"5250 WISCONSIN AVENUE NW, WASHINGTON, DC 20015",1370,Metro Station Elevator,2016/01/08 00:00:00+00,316426,MetroEntFullPt_147,669,,{7737C796-4F9E-4443-829A-AA6C493B858F},JLAY,2023/07/28 17:37:18+00,JLAY,2023/07/28 19:42:07+00,11094052,6642.10009765625,59e97659a86ee765627683f345adaa9d,59e97659a86ee765627683f345adaa9d,697ed31d6d5fdc9d08898b3df265b536,Left
-77.0283229265825,38.8937722094368,FEDERAL TRIANGLE ELEVATOR,https://www.wmata.com/rider-guide/stations/federal-triangle.cfm,RONALD REAGAN BUILDING - WEST SIDE OF 12TH STREET NW BETWEEN PENNSYLVANIA AVENUE NW AND CONSTITUTION AVENUE NW,"blue, orange, silver","350 12TH STREET NW, WASHINGTON, DC 20004",1370,Metro Station Elevator,2016/01/08 00:00:00+00,316345,MetroEntFullPt_149,670,,{B02AB705-FC93-4842-ADF3-9B2F57A66DC5},JLAY,2023/07/28 17:37:18+00,JLAY,2023/07/28 19:42:07+00,11001202,367.600006103516,dc1f8411d4b422a37d20f913ef9450a8,dc1f8411d4b422a37d20f913ef9450a8,db3860e2adefd67df46f9ddb64596e34,Left
-77.0179915606916,38.975779226378,TAKOMA ELEVATOR,https://www.wmata.com/rider-guide/stations/takoma.cfm,NE SIDE OF CEDAR STREET NW AND BLAIR ROAD NW,red,"327 CEDAR STREET NW, WASHINGTON, DC 20012",1370,Metro Station Elevator,2016/01/08 00:00:00+00,294822,MetroEntFullPt_163,671,,{CF50483B-26F4-474E-884F-918F1CBDB066},JLAY,2023/07/28 17:37:18+00,JLAY,2023/07/28 19:42:07+00,0,0,0,0,0,0
-76.9851081548433,38.8810571044409,POTOMAC AVE ELEVATOR,https://www.wmata.com/rider-guide/stations/potomac-ave.cfm,SE CORNER OF 14TH STREET SE ANDG STREET SE,"blue, orange, silver","700 14TH STREET SE, WASHINGTON , DC  20003",1370,Metro Station Elevator,2016/01/08 00:00:00+00,294861,MetroEntFullPt_174,672,,{4095D388-53D7-4AFA-80D3-C74C9F63E499},JLAY,2023/07/28 17:37:18+00,JLAY,2023/07/28 19:42:07+00,13038612,1439.09997558594,864c9962623d341ffdab95be48754391,b1b2f4a6fcb481378ba4212ecdfaecd6,4a87d3369b45552dc9f587e90dd84eb8,Right
-77.0217187914784,38.8979338952959,GALLERY PL-CHINATOWN ELEVATOR,https://www.wmata.com/rider-guide/stations/gallery-place.cfm,NE CORNER OF 7TH STREET NW AND F STREET NW,"red, green, yellow","625 7TH STREET NW, WASHINGTON, DC 20001",1370,Metro Station Elevator,2016/01/08 00:00:00+00,316419,MetroEntFullPt_197,673,,{D9F1AF37-C135-4438-88CC-C244EACD4B03},JLAY,2023/07/28 17:37:18+00,JLAY,2023/07/28 19:42:07+00,11000702,921.200012207031,6a8045580199bf4fc4d238f93628caef,6a8045580199bf4fc4d238f93628caef,7226aab7fa58e7c100672519fc1eccaf,Right
-76.9771748036567,38.8859261358553,STADIUM-ARMORY ELEVATOR,https://www.wmata.com/rider-guide/stations/stadium-armory.cfm,19TH STREET SE BETWEEN BURKE STREET SE AND C ST SE,"blue, orange, silver","290 19TH STREET SE, WASHINGTON, DC 20003",1370,Metro Station Elevator,2016/01/08 00:00:00+00,316351,MetroEntFullPt_206,674,,{C0CEACE4-5E00-4B2A-8E50-73694A58FFB9},JLAY,2023/07/28 17:37:18+00,JLAY,2023/07/28 19:42:07+00,13001902,430.5,6abb362ff34b8ccba0fd36b199a359b0,21548c69d8ec0342c3035a93ee6a8d8b,34c728a025a115409c820c7aaa08802c,Left
-77.0221279361033,38.9059533195135,MT VERNON SQ 7TH ST-CONVENTION CENTER ELEV,https://www.wmata.com/rider-guide/stations/mt-vernon-sq.cfm,NW CORNER OF 7TH STREET NW AND M STREET NW,"green, yellow","1202 7TH STREET NW, WASHINGTON, DC 20001",1370,Metro Station Elevator,2016/01/08 00:00:00+00,316434,MetroEntFullPt_209,675,,{C0BF3E95-8767-4801-98C7-34B029368F78},JLAY,2023/07/28 17:37:18+00,JLAY,2023/07/28 19:42:07+00,11000702,1809.90002441406,5b77aecaa6f7efb149a75311eff4609b,5b77aecaa6f7efb149a75311eff4609b,d5102c5ce4d6b17db191314a76595f2f,Left
-77.0393038622028,38.9030342858505,FARRAGUT NORTH ELEVATOR,https://www.wmata.com/rider-guide/stations/farragut-north.cfm,NE CORNER OF 17TH STREET NW AND K STREET NW,red,"1705 K STREET NW, WASHINGTON, DC 20036",1370,Metro Station Elevator,2016/01/08 00:00:00+00,316360,MetroEntFullPt_211,676,,{CD5A6EC1-06FA-4BE3-8186-D31ADF9AC044},JLAY,2023/07/28 17:37:18+00,JLAY,2023/07/28 19:42:07+00,11025152,184.899993896484,588c63f3657a1f7e305b60086e233567,79c76613682f1b1b1855eb25350f78ba,217ad89d885db8b2cf5baa1932fd4a1c,Right
-77.0279104827723,38.8989255718471,METRO CENTER ELEVATOR,https://www.wmata.com/rider-guide/stations/metro-center.cfm,12TH STREET BETWEEN G ST NW AND H ST NW,"red, blue, orange, silver","701 12TH STREET NW, WASHINGTON, DC 20005",1370,Metro Station Elevator,2016/01/08 00:00:00+00,310415,MetroEntFullPt_86,677,,{71545A97-41AF-4A0E-B390-E94411F43BCE},JLAY,2023/07/28 17:37:18+00,JLAY,2023/07/28 19:42:07+00,11001202,939.5,1a81a26188269109a590cbfe306f0ca6,79ab87df4d60a402eea66caa07b13004,c13e6737a8670b590a3e42636f6a199e,Right
-77.0323078939752,38.9011167491243,MCPHERSON SQUARE ELEVATOR,https://www.wmata.com/rider-guide/stations/mcpherson-sq.cfm,SW CORNER OF 14TH STREET NW AND I STREET NW,"blue, orange, silver","1402 I STREET NW, WASHINGTON, DC 20005",1370,Metro Station Elevator,2016/01/08 00:00:00+00,316430,MetroEntFullPt_87,678,,{6552AD6B-DD0E-40D5-8F99-16A412BD4547},JLAY,2023/07/28 17:37:18+00,JLAY,2023/07/28 19:42:07+00,11047772,1813.09997558594,1b8458ef5ea2843606963bd6df217a6a,0d9b281baae21b3843851d252eaca222,59193d830b96aba3cb5ed2fb081ce081,Left
